{
    "links": {
        "self": "http://www.neowsapp.com/rest/v1/neo/3781733?api_key=iIulBulltgU6a56xZRHN4H3l9WmuAYTsLGpBGhQ2"
    },
    "id": "3781733",
    "neo_reference_id": "3781733",
    "name": "(2017 SR12)",
    "designation": "2017 SR12",
    "nasa_jpl_url": "http://ssd.jpl.nasa.gov/sbdb.cgi?sstr=3781733",
    "absolute_magnitude_h": 20.8,
    "estimated_diameter": {
        "kilometers": {
            "estimated_diameter_min": 0.1838886721,
            "estimated_diameter_max": 0.411187571
        },
        "meters": {
            "estimated_diameter_min": 183.8886720703,
            "estimated_diameter_max": 411.1875710413
        },
        "miles": {
            "estimated_diameter_min": 0.1142630881,
            "estimated_diameter_max": 0.2555000322
        },
        "feet": {
            "estimated_diameter_min": 603.309310875,
            "estimated_diameter_max": 1349.040630575
        }
    },
    "is_potentially_hazardous_asteroid": false,
    "close_approach_data": [
        {
            "close_approach_date": "1992-11-16",
            "close_approach_date_full": "1992-Nov-16 19:58",
            "epoch_date_close_approach": 721943880000,
            "relative_velocity": {
                "kilometers_per_second": "6.717213945",
                "kilometers_per_hour": "24181.9702021561",
                "miles_per_hour": "15025.7358736675"
            },
            "miss_distance": {
                "astronomical": "0.3613472366",
                "lunar": "140.5640750374",
                "kilometers": "54056776.925746042",
                "miles": "33589323.6240256996"
            },
            "orbiting_body": "Earth"
        },
        {
            "close_approach_date": "2017-11-18",
            "close_approach_date_full": "2017-Nov-18 19:58",
            "epoch_date_close_approach": 1511035080000,
            "relative_velocity": {
                "kilometers_per_second": "6.2511635976",
                "kilometers_per_hour": "22504.188951259",
                "miles_per_hour": "13983.2278514087"
            },
            "miss_distance": {
                "astronomical": "0.3690982388",
                "lunar": "143.5792148932",
                "kilometers": "55216310.345231356",
                "miles": "34309824.2808344728"
            },
            "orbiting_body": "Earth"
        },
        {
            "close_approach_date": "2042-11-03",
            "close_approach_date_full": "2042-Nov-03 11:19",
            "epoch_date_close_approach": 2298626340000,
            "relative_velocity": {
                "kilometers_per_second": "6.0049427235",
                "kilometers_per_hour": "21617.7938046119",
                "miles_per_hour": "13432.4563782046"
            },
            "miss_distance": {
                "astronomical": "0.3767442937",
                "lunar": "146.5535302493",
                "kilometers": "56360143.872174419",
                "miles": "35020569.4767842222"
            },
            "orbiting_body": "Earth"
        }
    ],
    "orbital_data": {
        "orbit_id": "5",
        "orbit_determination_date": "2017-12-24 06:27:12",
        "first_observation_date": "2017-09-22",
        "last_observation_date": "2017-12-14",
        "data_arc_in_days": 83,
        "observations_used": 27,
        "orbit_uncertainty": "5",
        "minimum_orbit_intersection": ".311846",
        "jupiter_tisserand_invariant": "3.208",
        "epoch_osculation": "2459000.5",
        "eccentricity": ".4998976700755399",
        "semi_major_axis": "2.593438863602507",
        "inclination": "10.63037707796916",
        "ascending_node_longitude": "38.46390033479432",
        "orbital_period": "1525.500831831067",
        "perihelion_distance": "1.296984818204258",
        "perihelion_argument": "16.08356272772691",
        "aphelion_distance": "3.889892909000756",
        "perihelion_time": "2459586.947161667971",
        "mean_anomaly": "221.6054650412349",
        "mean_motion": ".2359880719094005",
        "equinox": "J2000",
        "orbit_class": {
            "orbit_class_type": "AMO",
            "orbit_class_description": "Near-Earth asteroid orbits similar to that of 1221 Amor",
            "orbit_class_range": "1.017 AU < q (perihelion) < 1.3 AU"
        }
    },
    "is_sentry_object": false
}